ONEWEB-0102             
1 47258U 20100A   26009.25571952 -.00000950  00000+0 -26773-2 0  9994
2 47258  87.8919  22.2443 0001687  83.6459 276.4862 13.12450831243882
ONEWEB-0109             
1 47259U 20100B   26009.26418161  .00000123  00000+0  30743-3 0  9991
2 47259  87.8926  22.2130 0001604  92.3244 267.8068 13.12442046243715
ONEWEB-0110             
1 47260U 20100C   26009.29128906 -.00000382  00000+0 -10975-2 0  9994
2 47260  87.8927  22.1921 0001663  81.5123 278.6194 13.12443977243888
ONEWEB-0111             
1 47261U 20100D   26009.32178420  .00000508  00000+0  13764-2 0  9992
2 47261  87.8927  22.2041 0001843  87.1113 273.0227 13.12444782243728
ONEWEB-0114             
1 47262U 20100E   26009.27603804 -.00000255  00000+0 -74325-3 0  9998
2 47262  87.8927  22.2082 0001626 103.0745 257.0565 13.12442531243673
ONEWEB-0117             
1 47263U 20100F   26009.26757382 -.00000008  00000+0 -57082-4 0  9997
2 47263  87.8925  22.2061 0001734  89.8205 270.3122 13.12441219243681
ONEWEB-0118             
1 47264U 20100G   26009.30146632 -.00000150  00000+0 -45294-3 0  9992
2 47264  87.8927  22.2000 0001853 101.6140 258.5197 13.12444357243888
ONEWEB-0119             
1 47265U 20100H   26009.32688483  .00000417  00000+0  11245-2 0  9992
2 47265  87.8917  22.2262 0001711  91.0491 269.0833 13.12443931243861
